STARLINK-1531           
1 46572U 20070AS  24192.56438794 -.00000611  00000+0 -22133-4 0  9991
2 46572  53.0567  22.1003 0002041 103.2799 256.8418 15.06389195208010
STARLINK-1660           
1 46574U 20070AU  24192.85975347 -.00002185  00000+0 -12790-3 0  9990
2 46574  53.0560   5.7817 0001360  98.5774 261.5370 15.06378915208251
STARLINK-1675           
1 46575U 20070AV  24193.57896322 -.00000019  00000+0  17614-4 0  9990
2 46575  53.0572 337.5549 0001427  87.2160 272.8993 15.06397696208704
STARLINK-1677           
1 46576U 20070AW  24192.91872295 -.00001569  00000+0 -86500-4 0  9993
2 46576  53.0569   5.5180 0001736 109.1309 250.9868 15.06388806208268
STARLINK-1682           
1 46577U 20070AX  24193.61166729  .00004089  00000+0  29317-3 0  9990
2 46577  53.0541   2.4070 0001552  89.5116 270.6051 15.06412815208368
STARLINK-1683           
1 46578U 20070AY  24193.59278194  .00000725  00000+0  67517-4 0  9996
2 46578  53.0558 347.5414 0001470  95.0647 265.0510 15.06409259208571
STARLINK-1705           
1 46579U 20070AZ  24193.46423900  .00002101  00000+0  15989-3 0  9995
2 46579  53.0561   3.0676 0000928  82.7469 277.3625 15.06394687208348
STARLINK-1708           
1 46580U 20070BA  24193.44212522 -.00000993  00000+0 -47797-4 0  9993
2 46580  53.0560   3.1686 0001991  90.7760 269.3457 15.06392195208341
STARLINK-1712           
1 46581U 20070BB  24193.60659937  .00001490  00000+0  11886-3 0  9997
2 46581  53.0548 357.4297 0001382  78.7104 281.4040 15.06406377208434
STARLINK-1728           
1 46582U 20070BC  24193.45917321 -.00000519  00000+0 -15943-4 0  9997
2 46582  53.0551 358.0922 0001756  81.2620 278.8568 15.06394761208414
STARLINK-1729           
1 46583U 20070BD  24193.50893666  .00000742  00000+0  68732-4 0  9999
2 46583  53.0560  17.8679 0001400  82.5402 277.5746 15.06400773208136
STARLINK-1732           
1 46584U 20070BE  24193.59828393  .00003235  00000+0  23590-3 0  9996
2 46584  53.0535 357.4957 0001621  91.6516 268.4658 15.06415142208433
STARLINK-1736           
1 46585U 20070BF  24193.51450244 -.00000207  00000+0  50052-5 0  9997
2 46585  53.0555 358.1875 0001446  87.0310 273.0844 15.06395064208416
STARLINK-1737           
1 46586U 20070BG  24193.60291304  .00003962  00000+0  28465-3 0  9999
2 46586  53.0561 357.4464 0001018  73.3465 286.7635 15.06412247208438
STARLINK-1746           
1 46588U 20070BJ  24193.45180147  .00009453  00000+0  65291-3 0  9995
2 46588  53.0552 358.1214 0000568  83.9016 276.2038 15.06384863208410
STARLINK-1749           
1 46589U 20070BK  24193.51077865  .00004414  00000+0  31515-3 0  9999
2 46589  53.0575 357.8606 0001460  84.6331 275.4824 15.06388471208410
STARLINK-1755           
1 46591U 20070BM  24193.43337314 -.00002075  00000+0 -12046-3 0  9992
2 46591  53.0569 358.2069 0002013  86.8760 273.2459 15.06391708207460
GAOFEN-13 01            
1 46610U 20071A   24193.58868921 -.00000356  00000+0  00000+0 0  9996
2 46610   0.6800  87.5667 0014369 278.2851 253.7083  1.00270464 13846
FLOCK 4V-20             
1 46612U 20061BJ  24193.18652636  .00160885  00000+0  28093-2 0  9995
2 46612  97.3143 268.2040 0006291 275.8084  84.2450 15.50078646208333
STARLINK-1715           
1 46671U 20073B   24193.13022750  .00004711  00000+0  33505-3 0  9996
2 46671  53.0542  89.8101 0001323  70.9196 289.1936 15.06390617205635
STARLINK-1716           
1 46672U 20073C   24193.01455378 -.00001188  00000+0 -60899-4 0  9994
2 46672  53.0538  85.0877 0001585  93.0168 267.1002 15.06396809205699
STARLINK-1717           
1 46673U 20073D   24193.58334491  .00194336  00000+0  13652-2 0  9998
2 46673  53.0506  54.8415 0002195 232.5110 139.8637 15.73058880  5990
STARLINK-1718           
1 46674U 20073E   24192.97400546 -.00003087  00000+0 -18849-3 0  9994
2 46674  53.0549  85.2641 0001629 121.7232 238.3916 15.06387525205682
STARLINK-1720           
1 46675U 20073F   24193.23571044  .00008191  00000+0  56816-3 0  9992
2 46675  53.0526  84.0925 0001678 106.1851 253.9323 15.06396934205722
STARLINK-1766           
1 46677U 20073H   24193.01113552  .00089271  00000+0  94725-3 0  9995
2 46677  53.0468  56.4564 0004508 140.2863 219.8481 15.63354499206098
STARLINK-1773           
1 46679U 20073K   24192.97217029  .00004868  00000+0  34552-3 0  9996
2 46679  53.0535  65.2773 0001328  95.9973 264.1167 15.06396337205963
STARLINK-1775           
1 46681U 20073M   24193.14402196  .00002607  00000+0  19384-3 0  9995
2 46681  53.0536  99.5048 0001336 101.4647 258.6492 15.06396535205499
STARLINK-1776           
1 46682U 20073N   24193.16982055 -.00002177  00000+0 -12735-3 0  9992
2 46682  53.0536  99.3908 0001371 106.5106 253.6034 15.06389433205506
STARLINK-1780           
1 46684U 20073Q   24193.09195115  .00004624  00000+0  32913-3 0  9996
2 46684  53.0535  84.7408 0001369  91.4254 268.6892 15.06394811205709
STARLINK-1781           
1 46685U 20073R   24193.17354038 -.00003576  00000+0 -22135-3 0  9999
2 46685  53.0537  99.6430 0001340  86.3783 273.7359 15.06386780205498
