OBJECT_NAME,OBJECT_ID,EPOCH,MEAN_MOTION,ECCENTRICITY,INCLINATION,RA_OF_ASC_NODE,ARG_OF_PERICENTER,MEAN_ANOMALY,EPHEMERIS_TYPE,CLASSIFICATION_TYPE,NORAD_CAT_ID,ELEMENT_SET_NO,REV_AT_EPOCH,BSTAR,MEAN_MOTION_DOT,MEAN_MOTION_DDOT
STARLINK-1531,2020-070AS,2024-07-10T13:32:43.118016,15.06389195,.0002041,53.0567,22.1003,103.2799,256.8418,0,U,46572,999,20801,-.22133E-4,-.611E-5,0
STARLINK-1660,2020-070AU,2024-07-10T20:38:02.699808,15.06378915,.000136,53.0560,5.7817,98.5774,261.5370,0,U,46574,999,20825,-.1279E-3,-.2185E-4,0
STARLINK-1675,2020-070AV,2024-07-11T13:53:42.422208,15.06397696,.0001427,53.0572,337.5549,87.2160,272.8993,0,U,46575,999,20870,.17614E-4,-.19E-6,0
STARLINK-1677,2020-070AW,2024-07-10T22:02:57.662880,15.06388806,.0001736,53.0569,5.5180,109.1309,250.9868,0,U,46576,999,20826,-.865E-4,-.1569E-4,0
STARLINK-1682,2020-070AX,2024-07-11T14:40:48.053856,15.06412815,.0001552,53.0541,2.4070,89.5116,270.6051,0,U,46577,999,20836,.29317E-3,.4089E-4,0
STARLINK-1683,2020-070AY,2024-07-11T14:13:36.359616,15.06409259,.000147,53.0558,347.5414,95.0647,265.0510,0,U,46578,999,20857,.67517E-4,.725E-5,0
STARLINK-1705,2020-070AZ,2024-07-11T11:08:30.249600,15.06394687,.0000928,53.0561,3.0676,82.7469,277.3625,0,U,46579,999,20834,.15989E-3,.2101E-4,0
STARLINK-1708,2020-070BA,2024-07-11T10:36:39.619008,15.06392195,.0001991,53.0560,3.1686,90.7760,269.3457,0,U,46580,999,20834,-.47797E-4,-.993E-5,0
STARLINK-1712,2020-070BB,2024-07-11T14:33:30.185568,15.06406377,.0001382,53.0548,357.4297,78.7104,281.4040,0,U,46581,999,20843,.11886E-3,.149E-4,0
STARLINK-1728,2020-070BC,2024-07-11T11:01:12.565344,15.06394761,.0001756,53.0551,358.0922,81.2620,278.8568,0,U,46582,999,20841,-.15943E-4,-.519E-5,0
STARLINK-1729,2020-070BD,2024-07-11T12:12:52.127424,15.06400773,.00014,53.0560,17.8679,82.5402,277.5746,0,U,46583,999,20813,.68732E-4,.742E-5,0
STARLINK-1732,2020-070BE,2024-07-11T14:21:31.731552,15.06415142,.0001621,53.0535,357.4957,91.6516,268.4658,0,U,46584,999,20843,.2359E-3,.3235E-4,0
STARLINK-1736,2020-070BF,2024-07-11T12:20:53.010816,15.06395064,.0001446,53.0555,358.1875,87.0310,273.0844,0,U,46585,999,20841,.50052E-5,-.207E-5,0
STARLINK-1737,2020-070BG,2024-07-11T14:28:11.686656,15.06412247,.0001018,53.0561,357.4464,73.3465,286.7635,0,U,46586,999,20843,.28465E-3,.3962E-4,0
STARLINK-1746,2020-070BJ,2024-07-11T10:50:35.647008,15.06384863,.0000568,53.0552,358.1214,83.9016,276.2038,0,U,46588,999,20841,.65291E-3,.9453E-4,0
STARLINK-1749,2020-070BK,2024-07-11T12:15:31.275360,15.06388471,.000146,53.0575,357.8606,84.6331,275.4824,0,U,46589,999,20841,.31515E-3,.4414E-4,0
STARLINK-1755,2020-070BM,2024-07-11T10:24:03.439296,15.06391708,.0002013,53.0569,358.2069,86.8760,273.2459,0,U,46591,999,20746,-.12046E-3,-.2075E-4,0
GAOFEN-13 01,2020-071A,2024-07-11T14:07:42.747744,1.00270464,.0014369,0.6800,87.5667,278.2851,253.7083,0,U,46610,999,1384,0,-.356E-5,0
FLOCK 4V-20,2020-061BJ,2024-07-11T04:28:35.877504,15.50078646,.0006291,97.3143,268.2040,275.8084,84.2450,0,U,46612,999,20833,.28093E-2,.160885E-2,0
STARLINK-1715,2020-073B,2024-07-11T03:07:31.656000,15.06390617,.0001323,53.0542,89.8101,70.9196,289.1936,0,U,46671,999,20563,.33505E-3,.4711E-4,0
STARLINK-1716,2020-073C,2024-07-11T00:20:57.446592,15.06396809,.0001585,53.0538,85.0877,93.0168,267.1002,0,U,46672,999,20569,-.60899E-4,-.1188E-4,0
STARLINK-1717,2020-073D,2024-07-11T14:00:01.000224,15.73058880,.0002195,53.0506,54.8415,232.5110,139.8637,0,U,46673,999,599,.13652E-2,.194336E-2,0
STARLINK-1718,2020-073E,2024-07-10T23:22:34.071744,15.06387525,.0001629,53.0549,85.2641,121.7232,238.3916,0,U,46674,999,20568,-.18849E-3,-.3087E-4,0
STARLINK-1720,2020-073F,2024-07-11T05:39:25.382016,15.06396934,.0001678,53.0526,84.0925,106.1851,253.9323,0,U,46675,999,20572,.56816E-3,.8191E-4,0
STARLINK-1766,2020-073H,2024-07-11T00:16:02.108928,15.63354499,.0004508,53.0468,56.4564,140.2863,219.8481,0,U,46677,999,20609,.94725E-3,.89271E-3,0
STARLINK-1773,2020-073K,2024-07-10T23:19:55.513056,15.06396337,.0001328,53.0535,65.2773,95.9973,264.1167,0,U,46679,999,20596,.34552E-3,.4868E-4,0
STARLINK-1775,2020-073M,2024-07-11T03:27:23.497344,15.06396535,.0001336,53.0536,99.5048,101.4647,258.6492,0,U,46681,999,20549,.19384E-3,.2607E-4,0
STARLINK-1776,2020-073N,2024-07-11T04:04:32.495520,15.06389433,.0001371,53.0536,99.3908,106.5106,253.6034,0,U,46682,999,20550,-.12735E-3,-.2177E-4,0
STARLINK-1780,2020-073Q,2024-07-11T02:12:24.579360,15.06394811,.0001369,53.0535,84.7408,91.4254,268.6892,0,U,46684,999,20570,.32913E-3,.4624E-4,0
STARLINK-1781,2020-073R,2024-07-11T04:09:53.888832,15.06386780,.000134,53.0537,99.6430,86.3783,273.7359,0,U,46685,999,20549,-.22135E-3,-.3576E-4,0
